EUTELSAT 21B            
1 38992U 12062B   25329.79206963  .00000149  00000+0  00000+0 0  9997
2 38992   0.0692   3.8390 0003325 253.5641 114.3230  1.00270710 47780
EUTELSAT 70B            
1 39020U 12069A   25329.85973713 -.00000024  00000+0  00000+0 0  9991
2 39020   0.0640 343.9688 0004495 252.2687 208.8298  1.00271478 47470
EUTELSAT 117 WEST A     
1 39122U 13012A   25329.63108992  .00000006  00000+0  00000+0 0  9997
2 39122   0.0155 359.0837 0002738 241.3214 294.8289  1.00271616 46390
EUTELSAT 7B             
1 39163U 13022A   25329.79826921  .00000067  00000+0  00000+0 0  9996
2 39163   0.0742  17.9864 0003810 296.5600  44.8288  1.00271618 45911
EXPRESS-AT1             
1 39612U 14010A   25329.85669670  .00000098  00000+0  00000+0 0  9990
2 39612   0.0144 274.7255 0000584 209.8000 304.9426  1.00271133 42776
EXPRESS-AT2             
1 39613U 14010B   25329.82461605 -.00000261  00000+0  00000+0 0  9999
2 39613   0.0162 285.7941 0001106   5.9619 210.0081  1.00272735 42462
EUTELSAT 3B             
1 39773U 14030A   25329.79748921  .00000039  00000+0  00000+0 0  9995
2 39773   0.0639 343.5490 0004667 235.0632 136.6081  1.00271412 42022
EUTELSAT 115 WEST B     
1 40425U 15010B   25328.97566550 -.00000005  00000+0  00000+0 0  9999
2 40425   0.0114 140.7695 0000332 139.0141  20.7387  1.00270511 39345
